[{"OBJECT_NAME":"QIANFAN-16","OBJECT_ID":"2024-140R","EPOCH":"2026-03-09T21:51:43.552800","MEAN_MOTION":13.50998466,"ECCENTRICITY":0.00136929,"INCLINATION":88.971,"RA_OF_ASC_NODE":290.3718,"ARG_OF_PERICENTER":326.9882,"MEAN_ANOMALY":33.0413,"EPHEMERIS_TYPE":0,"CLASSIFICATION_TYPE":"U","NORAD_CAT_ID":60394,"ELEMENT_SET_NO":999,"REV_AT_EPOCH":7894,"BSTAR":0.00010191129,"MEAN_MOTION_DOT":7.8e-7,"MEAN_MOTION_DDOT":0},{"OBJECT_NAME":"SCOUT G-1 DEB","OBJECT_ID":"1987-080G","EPOCH":"2026-03-09T13:54:17.779680","MEAN_MOTION":13.53243402,"ECCENTRICITY":0.010888,"INCLINATION":90.3581,"RA_OF_ASC_NODE":106.5313,"ARG_OF_PERICENTER":356.8124,"MEAN_ANOMALY":155.7371,"EPHEMERIS_TYPE":0,"CLASSIFICATION_TYPE":"U","NORAD_CAT_ID":18561,"ELEMENT_SET_NO":999,"REV_AT_EPOCH":89387,"BSTAR":0.00066705,"MEAN_MOTION_DOT":4.71e-6,"MEAN_MOTION_DDOT":0}]
